{"fetched_at":"2026-07-14T06:35:04.008Z","source":"https://celestrak.org/NORAD/elements/gp.php?NAME=SENTINEL&FORMAT=JSON","constellation":"sentinel-1","records":[{"OBJECT_NAME":"SENTINEL-1A","OBJECT_ID":"2014-016A","EPOCH":"2026-07-13T21:42:38.833632","CLASSIFICATION_TYPE":"U","MEAN_MOTION":14.59200223,"ECCENTRICITY":0.0001445,"INCLINATION":98.1781,"RA_OF_ASC_NODE":202.0472,"ARG_OF_PERICENTER":87.109,"MEAN_ANOMALY":273.0275,"EPHEMERIS_TYPE":0,"NORAD_CAT_ID":39634,"ELEMENT_SET_NO":999,"REV_AT_EPOCH":65391,"BSTAR":-0.0000034177,"MEAN_MOTION_DOT":-6.2e-7,"MEAN_MOTION_DDOT":0},{"OBJECT_NAME":"SENTINEL-1C","OBJECT_ID":"2024-235A","EPOCH":"2026-07-13T21:00:38.860128","CLASSIFICATION_TYPE":"U","MEAN_MOTION":14.59197139,"ECCENTRICITY":0.0001373,"INCLINATION":98.1824,"RA_OF_ASC_NODE":201.8045,"ARG_OF_PERICENTER":91.449,"MEAN_ANOMALY":268.6867,"EPHEMERIS_TYPE":0,"NORAD_CAT_ID":62261,"ELEMENT_SET_NO":999,"REV_AT_EPOCH":8530,"BSTAR":0.0000017323,"MEAN_MOTION_DOT":-3.8e-7,"MEAN_MOTION_DDOT":0},{"OBJECT_NAME":"SENTINEL-1D","OBJECT_ID":"2025-251A","EPOCH":"2026-07-13T15:15:15.979968","CLASSIFICATION_TYPE":"U","MEAN_MOTION":14.59196942,"ECCENTRICITY":0.0001333,"INCLINATION":98.1837,"RA_OF_ASC_NODE":201.623,"ARG_OF_PERICENTER":92.0486,"MEAN_ANOMALY":268.0866,"EPHEMERIS_TYPE":0,"NORAD_CAT_ID":66315,"ELEMENT_SET_NO":999,"REV_AT_EPOCH":3658,"BSTAR":-0.00002853,"MEAN_MOTION_DOT":-0.0000018,"MEAN_MOTION_DDOT":0}]}
