SENTINEL-1A             
1 39634U 14016A   26194.90461613 -.00000062  00000+0 -34177-5 0  9995
2 39634  98.1781 202.0472 0001445  87.1090 273.0275 14.59200223653915
SENTINEL-1C             
1 62261U 24235A   26194.87544977 -.00000038  00000+0  17323-5 0  9998
2 62261  98.1824 201.8045 0001373  91.4490 268.6867 14.59197139 85300
SENTINEL-1D             
1 66315U 25251A   26194.63560162 -.00000180  00000+0 -28530-4 0  9999
2 66315  98.1837 201.6230 0001333  92.0486 268.0866 14.59196942 36580
